IRIDIUM 150             
1 43257U 18030J   25311.14471222  .00000272  00000+0  90063-4 0  9990
2 43257  86.4006  23.2836 0001995  97.6393 262.5030 14.34219931398333
IRIDIUM 143             
1 43258U 18030K   25311.19545519  .00000160  00000+0  50081-4 0  9999
2 43258  86.4008  23.3463 0001876 101.4419 258.6987 14.34218725398274
IRIDIUM 161             
1 43478U 18047C   25311.17166844  .00000470  00000+0  13378-3 0  9990
2 43478  86.4537 181.2288 0002248  83.4195 276.7262 14.43284751393115
IRIDIUM 152             
1 43479U 18047D   25311.16817382  .00000112  00000+0  32944-4 0  9994
2 43479  86.4013 181.0909 0002153  81.9253 278.2187 14.34218374390664
IRIDIUM 147             
1 43480U 18047E   25311.17451615 -.00000108  00000+0 -45676-4 0  9993
2 43480  86.4016 181.0894 0002071  86.8686 273.2747 14.34217734390661
IRIDIUM 110             
1 43481U 18047F   25311.18085972 -.00000047  00000+0 -23858-4 0  9994
2 43481  86.4018 181.1725 0002438  80.4687 279.6784 14.34217866390652
IRIDIUM 162             
1 43482U 18047G   25311.16534564  .00000515  00000+0  14709-3 0  9991
2 43482  86.4537 181.1252 0002113  78.2660 281.8778 14.43279175393102
IRIDIUM 160             
1 43569U 18061A   25311.05692727 -.00000095  00000+0 -40848-4 0  9996
2 43569  86.3982 149.6590 0002233  87.8773 272.2678 14.34216730381534
